ONEWEB-0158             
1 48054U 21025N   24165.53915440  .00000383  00000+0  10146-2 0  9997
2 48054  87.8926 106.2413 0002034  84.0947 276.0413 13.13471376157328
ONEWEB-0157             
1 48055U 21025P   24165.56295316 -.00000250  00000+0 -71971-3 0  9993
2 48055  87.8926 106.2517 0001865  77.7448 282.3890 13.13470557157262
ONEWEB-0162             
1 48056U 21025Q   24165.60263729  .00000268  00000+0  69860-3 0  9993
2 48056  87.8924 106.2397 0001981  80.8271 279.3082 13.13469086157247
ONEWEB-0155             
1 48057U 21025R   24165.54709193 -.00000118  00000+0 -35873-3 0  9990
2 48057  87.8925 106.2609 0002153  75.1909 284.9458 13.13474843157383
ONEWEB-0149             
1 48058U 21025S   24165.56771789 -.00000189  00000+0 -55377-3 0  9992
2 48058  87.8924 106.2532 0001803  83.9368 276.1966 13.13470172157181
ONEWEB-0148             
1 48059U 21025T   24165.38044582  .00000165  00000+0  41720-3 0  9996
2 48059  87.8929 106.3006 0001334  79.7168 280.4112 13.13470520157283
ONEWEB-0160             
1 48060U 21025U   24165.54866727 -.00000143  00000+0 -42572-3 0  9993
2 48060  87.8930 106.2628 0002678  98.5283 261.6149 13.13470792157254
ONEWEB-0163             
1 48061U 21025V   24165.53438588  .00000115  00000+0  27953-3 0  9996
2 48061  87.8928 106.2586 0001921  73.1916 286.9424 13.13470098157375
